NORAD_CAT_ID,OBJECT_NAME,OBJECT_TYPE,EPOCH,MEAN_MOTION,ECCENTRICITY,INCLINATION,RA_OF_ASC_NODE,ARG_OF_PERICENTER,MEAN_ANOMALY,BSTAR,MEAN_MOTION_DOT,MEAN_MOTION_DDOT,TLE_LINE0,TLE_LINE1,TLE_LINE2,SEMIMAJOR_AXIS,PERIOD,APOGEE,PERIGEE,DECAYED
55398.0,STARLINK-5275,PAYLOAD,2023-12-17 08:02:18,14.98327739,0.0002695,70.0001,315.1777,259.6089,100.4766,-3.0757e-05,-4.6e-06,0.0,0 STARLINK-5275,1 55398U 23014H   23351.33494017 -.00000460  00000-0 -30757-4 0  9993,2 55398  70.0001 315.1777 0002695 259.6089 100.4766 14.98327739 49282,6950.2,96.107,573.938,570.192,0.0
55398.0,STARLINK-5275,PAYLOAD,2023-12-17 22:27:30,14.98337369,0.0002968,69.9996,313.6622,266.5117,93.5702,4.8797e-05,4.89e-06,0.0,0 STARLINK-5275,1 55398U 23014H   23351.93577049  .00000489  00000-0  48797-4 0  9998,2 55398  69.9996 313.6622 0002968 266.5117  93.5702 14.98337369 50314,6950.17,96.107,574.098,569.972,0.0
55398.0,STARLINK-5275,PAYLOAD,2023-12-18 03:15:54,14.98337186,0.0002716,70.0002,313.1567,268.1611,91.9237,7.0582e-05,7.49e-06,0.0,0 STARLINK-5275,1 55398U 23014H   23352.13604937  .00000749  00000-0  70582-4 0  9994,2 55398  70.0002 313.1567 0002716 268.1611  91.9237 14.98337186 49406,6950.171,96.107,573.923,570.148,0.0
55398.0,STARLINK-5275,PAYLOAD,2023-12-18 06:28:10,14.98343445,0.0002824,69.9999,312.8205,265.7783,94.3053,0.00012281,1.373e-05,0.0,0 STARLINK-5275,1 55398U 23014H   23352.26956261  .00001373  00000-0  12281-3 0  9993,2 55398  69.9999 312.8205 0002824 265.7783  94.3053 14.98343445 49426,6950.151,96.106,573.979,570.054,0.0
55398.0,STARLINK-5275,PAYLOAD,2023-12-18 22:29:32,14.98324048,0.0002651,70.0033,311.1423,212.9835,147.1159,2.0234e-05,1.49e-06,0.0,0 STARLINK-5275,1 55398U 23014H   23352.93717652  .00000149  00000-0  20234-4 0  9994,2 55398  70.0033 311.1423 0002651 212.9835 147.1159 14.98324048 50460,6950.211,96.107,573.919,570.234,0.0
55398.0,STARLINK-5275,PAYLOAD,2023-12-19 03:17:56,14.9832182,0.0002732,70.0021,310.6367,226.1869,133.9064,-3.3294e-05,-4.9e-06,0.0,0 STARLINK-5275,1 55398U 23014H   23353.13746006 -.00000490  00000-0 -33294-4 0  9993,2 55398  70.0021 310.6367 0002732 226.1869 133.9064 14.98321820 49553,6950.218,96.108,573.982,570.184,0.0
55398.0,STARLINK-5275,PAYLOAD,2023-12-19 06:30:12,14.9832001,0.0002786,70.0007,310.2978,254.8261,105.259,-6.9258e-05,-9.19e-06,0.0,0 STARLINK-5275,1 55398U 23014H   23353.27098377 -.00000919  00000-0 -69258-4 0  9994,2 55398  70.0007 310.2978 0002786 254.8261 105.2590 14.98320010 49572,6950.224,96.108,574.025,570.152,0.0
55398.0,STARLINK-5275,PAYLOAD,2023-12-20 03:19:57,14.98333191,0.0002909,69.9998,308.1074,260.1514,99.9317,-9.1239e-05,-1.182e-05,0.0,0 STARLINK-5275,1 55398U 23014H   23354.13885628 -.00001182  00000-0 -91239-4 0  9990,2 55398  69.9998 308.1074 0002909 260.1514  99.9317 14.98333191 49704,6950.183,96.107,574.07,570.026,0.0
55398.0,STARLINK-5275,PAYLOAD,2023-12-20 06:32:12,14.98339471,0.000291,70.0002,307.772,257.9839,102.0994,-3.3571e-05,-4.94e-06,0.0,0 STARLINK-5275,1 55398U 23014H   23354.27236988 -.00000494  00000-0 -33571-4 0  9994,2 55398  70.0002 307.7720 0002910 257.9839 102.0994 14.98339471 49728,6950.164,96.106,574.051,570.006,0.0
55398.0,STARLINK-5275,PAYLOAD,2023-12-20 22:33:33,14.98323377,0.0002682,70.0012,306.0894,244.8501,115.238,9.446e-05,1.034e-05,0.0,0 STARLINK-5275,1 55398U 23014H   23354.93997615  .00001034  00000-0  94460-4 0  9991,2 55398  70.0012 306.0894 0002682 244.8501 115.2380 14.98323377 50769,6950.213,96.107,573.942,570.214,0.0
55398.0,STARLINK-5275,PAYLOAD,2023-12-21 03:21:58,14.98323095,0.0002658,70.0015,305.5851,240.9029,119.1864,9.9512e-05,1.094e-05,0.0,0 STARLINK-5275,1 55398U 23014H   23355.14025678  .00001094  00000-0  99512-4 0  9995,2 55398  70.0015 305.5851 0002658 240.9029 119.1864 14.98323095 49859,6950.214,96.107,573.927,570.232,0.0
55398.0,STARLINK-5275,PAYLOAD,2023-12-21 06:34:14,14.98323898,0.0002674,70.0013,305.2482,244.5432,115.545,9.3704e-05,1.025e-05,0.0,0 STARLINK-5275,1 55398U 23014H   23355.27377701  .00001025  00000-0  93704-4 0  9997,2 55398  70.0013 305.2482 0002674 244.5432 115.5450 14.98323898 50810,6950.212,96.107,573.935,570.218,0.0
55398.0,STARLINK-5275,PAYLOAD,2023-12-21 22:35:35,14.98327484,0.0002889,70.0008,303.565,255.4134,104.6704,-5.0199e-06,-1.53e-06,0.0,0 STARLINK-5275,1 55398U 23014H   23355.94137792 -.00000153  00000-0 -50199-5 0  9990,2 55398  70.0008 303.5650 0002889 255.4134 104.6704 14.98327484 50917,6950.201,96.107,574.074,570.058,0.0
55398.0,STARLINK-5275,PAYLOAD,2023-12-22 03:23:59,14.98327736,0.0002842,70.0006,303.0598,251.3493,108.7358,-7.4669e-06,-1.82e-06,0.0,0 STARLINK-5275,1 55398U 23014H   23356.14165784 -.00000182  00000-0 -74669-5 0  9995,2 55398  70.0006 303.0598 0002842 251.3493 108.7358 14.98327736 50003,6950.2,96.107,574.04,570.09,0.0
55398.0,STARLINK-5275,PAYLOAD,2023-12-22 06:36:15,14.98328467,0.0002931,70.0004,302.7235,262.8526,97.2299,-6.1606e-06,-1.66e-06,0.0,0 STARLINK-5275,1 55398U 23014H   23356.27517806 -.00000166  00000-0 -61606-5 0  9994,2 55398  70.0004 302.7235 0002931 262.8526  97.2299 14.98328467 50961,6950.198,96.107,574.1,570.026,0.0
55398.0,STARLINK-5275,PAYLOAD,2023-12-22 22:37:35,14.9833165,0.0002866,70.0001,301.0396,255.9197,104.1643,1.4205e-05,7.7e-07,0.0,0 STARLINK-5275,1 55398U 23014H   23356.94277465  .00000077  00000-0  14205-4 0  9993,2 55398  70.0001 301.0396 0002866 255.9197 104.1643 14.98331650 51063,6950.188,96.107,574.045,570.061,0.0
55398.0,STARLINK-5275,PAYLOAD,2023-12-23 03:25:59,14.98333928,0.0002738,70.0004,300.5348,252.2549,107.8311,2.7375e-05,2.34e-06,0.0,0 STARLINK-5275,1 55398U 23014H   23357.14305258  .00000234  00000-0  27375-4 0  9995,2 55398  70.0004 300.5348 0002738 252.2549 107.8311 14.98333928 50157,6950.181,96.107,573.949,570.143,0.0
55398.0,STARLINK-5275,PAYLOAD,2023-12-23 06:38:15,14.98334271,0.0002783,70.0,300.1964,255.1874,104.8977,5.3599e-05,5.47e-06,0.0,0 STARLINK-5275,1 55398U 23014H   23357.27657129  .00000547  00000-0  53599-4 0  9990,2 55398  70.0000 300.1964 0002783 255.1874 104.8977 14.98334271 51110,6950.18,96.107,573.979,570.11,0.0
55398.0,STARLINK-5275,PAYLOAD,2023-12-23 22:39:36,14.98327444,0.0002544,70.0002,298.513,252.042,108.0462,2.1663e-05,1.66e-06,0.0,0 STARLINK-5275,1 55398U 23014H   23357.94417588  .00000166  00000-0  21663-4 0  9991,2 55398  70.0002 298.5130 0002544 252.0420 108.0462 14.98327444 51215,6950.201,96.107,573.834,570.298,0.0
55398.0,STARLINK-5275,PAYLOAD,2023-12-24 03:28:00,14.9832984,0.0002485,70.0003,298.0081,251.3859,108.703,4.9398e-05,4.97e-06,0.0,0 STARLINK-5275,1 55398U 23014H   23358.14445373  .00000497  00000-0  49398-4 0  9999,2 55398  70.0003 298.0081 0002485 251.3859 108.7030 14.98329840 50307,6950.193,96.107,573.786,570.331,0.0
55398.0,STARLINK-5275,PAYLOAD,2023-12-24 06:40:16,14.98332732,0.000247,70.0003,297.6708,252.3225,107.7665,8.1109e-05,8.75e-06,0.0,0 STARLINK-5275,1 55398U 23014H   23358.27797092  .00000875  00000-0  81109-4 0  9997,2 55398  70.0003 297.6708 0002470 252.3225 107.7665 14.98332732 51263,6950.184,96.107,573.766,570.333,0.0
55398.0,STARLINK-5275,PAYLOAD,2023-12-24 22:41:37,14.98331266,0.00024,70.0004,295.9879,244.8073,115.2838,-4.1986e-06,-1.43e-06,0.0,0 STARLINK-5275,1 55398U 23014H   23358.94557253 -.00000143  00000-0 -41986-5 0  9994,2 55398  70.0004 295.9879 0002400 244.8073 115.2838 14.98331266 51362,6950.189,96.107,573.722,570.386,0.0
55398.0,STARLINK-5275,PAYLOAD,2023-12-25 03:30:01,14.98328815,0.0002522,70.0005,295.482,260.154,99.9334,1.5412e-05,9.1e-07,0.0,0 STARLINK-5275,1 55398U 23014H   23359.14585420  .00000091  00000-0  15412-4 0  9998,2 55398  70.0005 295.4820 0002522 260.1540  99.9334 14.98328815 50453,6950.197,96.107,573.814,570.309,0.0
55398.0,STARLINK-5275,PAYLOAD,2023-12-25 05:06:10,14.98321671,0.0002584,70.0003,295.3133,263.5824,96.504,0.00013893,1.565e-05,0.0,0 STARLINK-5275,1 55398U 23014H   23359.21261575  .00001565  00000-0  13893-3 0  9995,2 55398  70.0003 295.3133 0002584 263.5824  96.5040 14.98321671 51403,6950.219,96.108,573.88,570.288,0.0
55398.0,STARLINK-5275,PAYLOAD,2023-12-25 22:43:38,14.98324762,0.0002378,70.0004,293.4631,258.3183,101.7709,-4.8142e-05,-6.67e-06,0.0,0 STARLINK-5275,1 55398U 23014H   23359.94697842 -.00000667  00000-0 -48142-4 0  9995,2 55398  70.0004 293.4631 0002378 258.3183 101.7709 14.98324762 51514,6950.209,96.107,573.727,570.421,0.0
55398.0,STARLINK-5275,PAYLOAD,2023-12-26 03:32:03,14.98324515,0.0002434,70.0002,292.9582,257.152,102.9367,-5.3835e-05,-7.35e-06,0.0,0 STARLINK-5275,1 55398U 23014H   23360.14725900 -.00000735  00000-0 -53835-4 0  9997,2 55398  70.0002 292.9582 0002434 257.1520 102.9367 14.98324515 50604,6950.21,96.107,573.767,570.383,0.0
55398.0,STARLINK-5275,PAYLOAD,2023-12-26 05:08:11,14.98328846,0.0002788,69.9993,292.7892,271.2822,88.8018,-5.1948e-05,-7.13e-06,0.0,0 STARLINK-5275,1 55398U 23014H   23360.21401698 -.00000713  00000-0 -51948-4 0  9999,2 55398  69.9993 292.7892 0002788 271.2822  88.8018 14.98328846 51557,6950.196,96.107,573.999,570.124,0.0
55398.0,STARLINK-5275,PAYLOAD,2023-12-26 22:45:39,14.98327204,0.0002913,69.9991,290.9369,270.143,89.9395,-2.2067e-05,-3.56e-06,0.0,0 STARLINK-5275,1 55398U 23014H   23360.94837736 -.00000356  00000-0 -22067-4 0  9998,2 55398  69.9991 290.9369 0002913 270.1430  89.9395 14.98327204 51666,6950.202,96.107,574.091,570.042,0.0
55398.0,STARLINK-5275,PAYLOAD,2023-12-27 03:34:03,14.9833085,0.0002438,70.0003,290.4332,256.7243,103.3644,3.2526e-05,2.95e-06,0.0,0 STARLINK-5275,1 55398U 23014H   23361.14865333  .00000295  00000-0  32526-4 0  9996,2 55398  70.0003 290.4332 0002438 256.7243 103.3644 14.98330850 50750,6950.19,96.107,573.75,570.361,0.0
55398.0,STARLINK-5275,PAYLOAD,2023-12-27 05:10:11,14.98335204,0.0003069,69.9993,290.2638,272.5242,87.5566,6.9289e-05,7.34e-06,0.0,0 STARLINK-5275,1 55398U 23014H   23361.21540975  .00000734  00000-0  69289-4 0  9990,2 55398  69.9993 290.2638 0003069 272.5242  87.5566 14.98335204 51708,6950.177,96.107,574.175,569.909,0.0
